{
  "type": "FeatureCollection",
  "features": [
    {
      "type": "Feature",
      "properties": {
        "norad_id": 30172,
        "name": "FENGYUN 1C DEB",
        "group": "fengyun-1c-debris",
        "lat": -75.277646567751,
        "lon": 5.856621871024356,
        "alt_km": 852.8947287737328,
        "timestamp": "2025-12-14T11:29:50.334861+00:00",
        "meta_object_name": "FENGYUN 1C DEB",
        "meta_object_id": "1999-025UD",
        "meta_epoch": "2025-12-13T12:37:09.005088",
        "meta_mean_motion": 14.12472195,
        "meta_eccentricity": 0.00687743,
        "meta_inclination": 99.2345,
        "meta_ra_of_asc_node": 326.6216,
        "meta_arg_of_pericenter": 199.914,
        "meta_mean_anomaly": 276.2839,
        "meta_ephemeris_type": 0,
        "meta_classification_type": "U",
        "meta_norad_cat_id": 30172,
        "meta_element_set_no": 999,
        "meta_rev_at_epoch": 96528,
        "meta_bstar": 0.002078483,
        "meta_mean_motion_dot": 3.879e-05,
        "meta_mean_motion_ddot": 0,
        "tle_line1": "1 30172U 99025UD  25347.52579867  .00003879  00000+0  20785-2 0  9998",
        "tle_line2": "2 30172  99.2345 326.6216 0068774 199.9140 276.2839 14.12472195965281"
      },
      "geometry": {
        "type": "Point",
        "coordinates": [
          5.856621871024356,
          -75.277646567751
        ]
      }
    },
    {
      "type": "Feature",
      "properties": {
        "norad_id": 30173,
        "name": "FENGYUN 1C DEB",
        "group": "fengyun-1c-debris",
        "lat": -57.304942503539756,
        "lon": -135.0181348142119,
        "alt_km": 820.4492349380826,
        "timestamp": "2025-12-14T11:29:50.334871+00:00",
        "meta_object_name": "FENGYUN 1C DEB",
        "meta_object_id": "1999-025UE",
        "meta_epoch": "2025-12-13T16:25:48.118944",
        "meta_mean_motion": 14.11392069,
        "meta_eccentricity": 0.00804916,
        "meta_inclination": 98.9773,
        "meta_ra_of_asc_node": 58.4449,
        "meta_arg_of_pericenter": 285.9118,
        "meta_mean_anomaly": 238.6237,
        "meta_ephemeris_type": 0,
        "meta_classification_type": "U",
        "meta_norad_cat_id": 30173,
        "meta_element_set_no": 999,
        "meta_rev_at_epoch": 96562,
        "meta_bstar": 0.0019248143,
        "meta_mean_motion_dot": 3.547e-05,
        "meta_mean_motion_ddot": 0,
        "tle_line1": "1 30173U 99025UE  25347.68458471  .00003547  00000+0  19248-2 0  9997",
        "tle_line2": "2 30173  98.9773  58.4449 0080491 285.9118 238.6237 14.11392069965624"
      },
      "geometry": {
        "type": "Point",
        "coordinates": [
          -135.0181348142119,
          -57.304942503539756
        ]
      }
    },
    {
      "type": "Feature",
      "properties": {
        "norad_id": 30174,
        "name": "FENGYUN 1C DEB",
        "group": "fengyun-1c-debris",
        "lat": -34.0386638610113,
        "lon": 143.46323030668816,
        "alt_km": 628.1799184056235,
        "timestamp": "2025-12-14T11:29:50.334881+00:00",
        "meta_object_name": "FENGYUN 1C DEB",
        "meta_object_id": "1999-025UF",
        "meta_epoch": "2025-12-13T09:47:58.217280",
        "meta_mean_motion": 14.81126993,
        "meta_eccentricity": 0.00182127,
        "meta_inclination": 98.7756,
        "meta_ra_of_asc_node": 136.3024,
        "meta_arg_of_pericenter": 43.5833,
        "meta_mean_anomaly": 336.1367,
        "meta_ephemeris_type": 0,
        "meta_classification_type": "U",
        "meta_norad_cat_id": 30174,
        "meta_element_set_no": 999,
        "meta_rev_at_epoch": 98378,
        "meta_bstar": 0.0070218183,
        "meta_mean_motion_dot": 0.00055079,
        "meta_mean_motion_ddot": 0,
        "tle_line1": "1 30174U 99025UF  25347.40831270  .00055079  00000+0  70218-2 0  9991",
        "tle_line2": "2 30174  98.7756 136.3024 0018212  43.5833 336.1367 14.81126993983786"
      },
      "geometry": {
        "type": "Point",
        "coordinates": [
          143.46323030668816,
          -34.0386638610113
        ]
      }
    },
    {
      "type": "Feature",
      "properties": {
        "norad_id": 30175,
        "name": "FENGYUN 1C DEB",
        "group": "fengyun-1c-debris",
        "lat": 27.998716973742933,
        "lon": -130.411853353671,
        "alt_km": 888.6707462246632,
        "timestamp": "2025-12-14T11:29:50.334891+00:00",
        "meta_object_name": "FENGYUN 1C DEB",
        "meta_object_id": "1999-025UG",
        "meta_epoch": "2025-12-13T03:50:39.877728",
        "meta_mean_motion": 13.83867559,
        "meta_eccentricity": 0.01463304,
        "meta_inclination": 99.381,
        "meta_ra_of_asc_node": 43.2297,
        "meta_arg_of_pericenter": 211.549,
        "meta_mean_anomaly": 214.3185,
        "meta_ephemeris_type": 0,
        "meta_classification_type": "U",
        "meta_norad_cat_id": 30175,
        "meta_element_set_no": 999,
        "meta_rev_at_epoch": 95346,
        "meta_bstar": 0.00055754968,
        "meta_mean_motion_dot": 6.26e-06,
        "meta_mean_motion_ddot": 0,
        "tle_line1": "1 30175U 99025UG  25347.16018377  .00000626  00000+0  55755-3 0  9998",
        "tle_line2": "2 30175  99.3810  43.2297 0146330 211.5490 214.3185 13.83867559953460"
      },
      "geometry": {
        "type": "Point",
        "coordinates": [
          -130.411853353671,
          27.998716973742933
        ]
      }
    },
    {
      "type": "Feature",
      "properties": {
        "norad_id": 30177,
        "name": "FENGYUN 1C DEB",
        "group": "fengyun-1c-debris",
        "lat": -7.203576661809037,
        "lon": 110.83437356361554,
        "alt_km": 820.236465631182,
        "timestamp": "2025-12-14T11:29:50.334901+00:00",
        "meta_object_name": "FENGYUN 1C DEB",
        "meta_object_id": "1999-025UJ",
        "meta_epoch": "2025-12-12T08:14:17.963808",
        "meta_mean_motion": 13.62810519,
        "meta_eccentricity": 0.04515831,
        "meta_inclination": 98.6265,
        "meta_ra_of_asc_node": 290.0345,
        "meta_arg_of_pericenter": 139.42,
        "meta_mean_anomaly": 10.8367,
        "meta_ephemeris_type": 0,
        "meta_classification_type": "U",
        "meta_norad_cat_id": 30177,
        "meta_element_set_no": 999,
        "meta_rev_at_epoch": 93457,
        "meta_bstar": 0.00098444146,
        "meta_mean_motion_dot": 1.497e-05,
        "meta_mean_motion_ddot": 0,
        "tle_line1": "1 30177U 99025UJ  25346.34326347  .00001497  00000+0  98444-3 0  9997",
        "tle_line2": "2 30177  98.6265 290.0345 0451583 139.4200  10.8367 13.62810519934573"
      },
      "geometry": {
        "type": "Point",
        "coordinates": [
          110.83437356361554,
          -7.203576661809037
        ]
      }
    },
    {
      "type": "Feature",
      "properties": {
        "norad_id": 30178,
        "name": "FENGYUN 1C DEB",
        "group": "fengyun-1c-debris",
        "lat": 42.3315184424715,
        "lon": -149.08750340663863,
        "alt_km": 993.2789147185858,
        "timestamp": "2025-12-14T11:29:50.334911+00:00",
        "meta_object_name": "FENGYUN 1C DEB",
        "meta_object_id": "1999-025UK",
        "meta_epoch": "2025-12-13T07:19:51.908160",
        "meta_mean_motion": 13.58688077,
        "meta_eccentricity": 0.02805528,
        "meta_inclination": 102.2601,
        "meta_ra_of_asc_node": 220.8731,
        "meta_arg_of_pericenter": 125.8305,
        "meta_mean_anomaly": 303.2526,
        "meta_ephemeris_type": 0,
        "meta_classification_type": "U",
        "meta_norad_cat_id": 30178,
        "meta_element_set_no": 999,
        "meta_rev_at_epoch": 93179,
        "meta_bstar": 0.0022237683,
        "meta_mean_motion_dot": 2.04e-05,
        "meta_mean_motion_ddot": 0,
        "tle_line1": "1 30178U 99025UK  25347.30546190  .00002040  00000+0  22238-2 0  9997",
        "tle_line2": "2 30178 102.2601 220.8731 0280552 125.8305 303.2526 13.58688077931795"
      },
      "geometry": {
        "type": "Point",
        "coordinates": [
          -149.08750340663863,
          42.3315184424715
        ]
      }
    },
    {
      "type": "Feature",
      "properties": {
        "norad_id": 30181,
        "name": "FENGYUN 1C DEB",
        "group": "fengyun-1c-debris",
        "lat": 77.43467722766543,
        "lon": -63.9856429090428,
        "alt_km": 793.8124211125432,
        "timestamp": "2025-12-14T11:29:50.334922+00:00",
        "meta_object_name": "FENGYUN 1C DEB",
        "meta_object_id": "1999-025UN",
        "meta_epoch": "2025-12-13T05:02:55.796064",
        "meta_mean_motion": 14.29252146,
        "meta_eccentricity": 0.00400676,
        "meta_inclination": 98.8431,
        "meta_ra_of_asc_node": 70.4247,
        "meta_arg_of_pericenter": 358.4609,
        "meta_mean_anomaly": 55.9121,
        "meta_ephemeris_type": 0,
        "meta_classification_type": "U",
        "meta_norad_cat_id": 30181,
        "meta_element_set_no": 999,
        "meta_rev_at_epoch": 97518,
        "meta_bstar": 0.0022728548,
        "meta_mean_motion_dot": 5.787e-05,
        "meta_mean_motion_ddot": 0,
        "tle_line1": "1 30181U 99025UN  25347.21036801  .00005787  00000+0  22729-2 0  9990",
        "tle_line2": "2 30181  98.8431  70.4247 0040067 358.4609  55.9121 14.29252146975183"
      },
      "geometry": {
        "type": "Point",
        "coordinates": [
          -63.9856429090428,
          77.43467722766543
        ]
      }
    }
  ]
}